start=new Date('2022-04-05T00:00:00.000Z').valueOf();
sats=[{"MEAN_ELEMENT_THEORY":"SGP4","APOAPSIS":"548.360","OBJECT_NAME":"STARLINK-2591","PERIAPSIS":"546.151","OBJECT_TYPE":"PAYLOAD","CENTER_NAME":"EARTH","RCS_SIZE":"LARGE","DECAY_DATE":null,"SEMIMAJOR_AXIS":"6925.390","MEAN_MOTION_DOT":"0.00005354","PERIOD":"95.593","REF_FRAME":"TEME","REV_AT_EPOCH":"5134","RA_OF_ASC_NODE":"322.9879","ECCENTRICITY":"0.00015950","LAUNCH_DATE":"2021-05-04","SITE":"AFETR","EPHEMERIS_TYPE":"0","MEAN_MOTION_DDOT":"0.0000000000000","TIME_SYSTEM":"UTC","MEAN_MOTION":"15.06386325","ARG_OF_PERICENTER":"69.1601","FILE":"3388177","NORAD_CAT_ID":"48361","TLE_LINE1":"1 48361U 21038J   22094.82086543  .00005354  00000-0  37821-3 0  9990","COUNTRY_CODE":"US","GP_ID":"200434037","TLE_LINE2":"2 48361  53.0530 322.9879 0001595  69.1601 290.9559 15.06386325 51344","INCLINATION":"53.0530","MEAN_ANOMALY":"290.9559","ELEMENT_SET_NO":"999","CLASSIFICATION_TYPE":"U","EPOCH":"2022-04-04T19:42:02.773152","OBJECT_ID":"2021-038J","BSTAR":"0.00037821000000"},{"ARG_OF_PERICENTER":"49.3446","FILE":"3388177","NORAD_CAT_ID":"48362","TIME_SYSTEM":"UTC","MEAN_MOTION":"15.06485874","INCLINATION":"53.0563","MEAN_ANOMALY":"310.7765","CLASSIFICATION_TYPE":"U","ELEMENT_SET_NO":"999","EPOCH":"2022-04-04T20:17:46.675968","OBJECT_ID":"2021-038K","BSTAR":"-0.00136350000000","TLE_LINE1":"1 48362U 21038K   22094.84567912 -.00020581  00000-0 -13635-2 0  9994","GP_ID":"200434030","COUNTRY_CODE":"US","TLE_LINE2":"2 48362  53.0563 322.8940 0002560  49.3446 310.7765 15.06485874 51359","OBJECT_NAME":"STARLINK-2578","PERIAPSIS":"545.178","OBJECT_TYPE":"PAYLOAD","CENTER_NAME":"EARTH","RCS_SIZE":"LARGE","MEAN_ELEMENT_THEORY":"SGP4","APOAPSIS":"548.723","REV_AT_EPOCH":"5135","ECCENTRICITY":"0.00025600","RA_OF_ASC_NODE":"322.8940","LAUNCH_DATE":"2021-05-04","SITE":"AFETR","EPHEMERIS_TYPE":"0","MEAN_MOTION_DDOT":"0.0000000000000","DECAY_DATE":null,"SEMIMAJOR_AXIS":"6925.085","MEAN_MOTION_DOT":"-0.00020581","PERIOD":"95.587","REF_FRAME":"TEME"},{"TIME_SYSTEM":"UTC","MEAN_MOTION":"15.06383188","ARG_OF_PERICENTER":"79.5660","FILE":"3388179","NORAD_CAT_ID":"48363","TLE_LINE2":"2 48363  53.0560 317.8012 0001456  79.5660 280.5493 15.06383188 51422","TLE_LINE1":"1 48363U 21038L   22094.86371305  .00000158  00000-0  29546-4 0  9992","COUNTRY_CODE":"US","GP_ID":"200433628","INCLINATION":"53.0560","MEAN_ANOMALY":"280.5493","ELEMENT_SET_NO":"999","CLASSIFICATION_TYPE":"U","OBJECT_ID":"2021-038L","EPOCH":"2022-04-04T20:43:44.807520","BSTAR":"0.00002954600000","MEAN_ELEMENT_THEORY":"SGP4","APOAPSIS":"548.273","OBJECT_NAME":"STARLINK-2626","PERIAPSIS":"546.257","OBJECT_TYPE":"PAYLOAD","RCS_SIZE":"LARGE","CENTER_NAME":"EARTH","DECAY_DATE":null,"SEMIMAJOR_AXIS":"6925.400","PERIOD":"95.593","MEAN_MOTION_DOT":"0.00000158","REF_FRAME":"TEME","RA_OF_ASC_NODE":"317.8012","ECCENTRICITY":"0.00014560","REV_AT_EPOCH":"5142","LAUNCH_DATE":"2021-05-04","EPHEMERIS_TYPE":"0","SITE":"AFETR","MEAN_MOTION_DDOT":"0.0000000000000"},{"ECCENTRICITY":"0.00016880","RA_OF_ASC_NODE":"317.8295","REV_AT_EPOCH":"5142","LAUNCH_DATE":"2021-05-04","EPHEMERIS_TYPE":"0","SITE":"AFETR","MEAN_MOTION_DDOT":"0.0000000000000","DECAY_DATE":null,"SEMIMAJOR_AXIS":"6925.404","PERIOD":"95.593","MEAN_MOTION_DOT":"0.00002257","REF_FRAME":"TEME","OBJECT_NAME":"STARLINK-2611","PERIAPSIS":"546.100","OBJECT_TYPE":"PAYLOAD","RCS_SIZE":"LARGE","CENTER_NAME":"EARTH","MEAN_ELEMENT_THEORY":"SGP4","APOAPSIS":"548.438","INCLINATION":"53.0548","MEAN_ANOMALY":"298.6645","CLASSIFICATION_TYPE":"U","ELEMENT_SET_NO":"999","OBJECT_ID":"2021-038M","EPOCH":"2022-04-04T20:37:04.446336","BSTAR":"0.00017044000000","TLE_LINE2":"2 48364  53.0548 317.8295 0001688  61.4514 298.6645 15.06381831 51429","COUNTRY_CODE":"US","TLE_LINE1":"1 48364U 21038M   22094.85907924  .00002257  00000-0  17044-3 0  9995","GP_ID":"200434075","ARG_OF_PERICENTER":"61.4514","FILE":"3388179","NORAD_CAT_ID":"48364","TIME_SYSTEM":"UTC","MEAN_MOTION":"15.06381831"},{"MEAN_MOTION_DDOT":"0.0000000000000","SITE":"AFETR","EPHEMERIS_TYPE":"0","LAUNCH_DATE":"2021-05-04","RA_OF_ASC_NODE":"317.9314","ECCENTRICITY":"0.00015510","REV_AT_EPOCH":"5142","REF_FRAME":"TEME","PERIOD":"95.593","MEAN_MOTION_DOT":"0.00004471","DECAY_DATE":null,"SEMIMAJOR_AXIS":"6925.367","RCS_SIZE":"LARGE","CENTER_NAME":"EARTH","OBJECT_TYPE":"PAYLOAD","PERIAPSIS":"546.158","OBJECT_NAME":"STARLINK-2608","APOAPSIS":"548.306","MEAN_ELEMENT_THEORY":"SGP4","BSTAR":"0.00031892000000","OBJECT_ID":"2021-038N","EPOCH":"2022-04-04T20:06:34.168608","ELEMENT_SET_NO":"999","CLASSIFICATION_TYPE":"U","MEAN_ANOMALY":"293.5838","INCLINATION":"53.0547","TLE_LINE2":"2 48365  53.0547 317.9314 0001551  66.5314 293.5838 15.06393948 51425","TLE_LINE1":"1 48365U 21038N   22094.83789547  .00004471  00000-0  31892-3 0  9990","GP_ID":"200433626","COUNTRY_CODE":"US","NORAD_CAT_ID":"48365","FILE":"3388179","ARG_OF_PERICENTER":"66.5314","MEAN_MOTION":"15.06393948","TIME_SYSTEM":"UTC"},{"NORAD_CAT_ID":"48366","FILE":"3387897","ARG_OF_PERICENTER":"73.7743","MEAN_MOTION":"15.06390169","TIME_SYSTEM":"UTC","BSTAR":"-0.00008483800000","OBJECT_ID":"2021-038P","EPOCH":"2022-04-04T02:17:43.137024","CLASSIFICATION_TYPE":"U","ELEMENT_SET_NO":"999","MEAN_ANOMALY":"286.3402","INCLINATION":"53.0555","TLE_LINE2":"2 48366  53.0555 316.2487 0001416  73.7743 286.3402 15.06390169 50781","GP_ID":"200425605","TLE_LINE1":"1 48366U 21038P   22094.09563816 -.00001545  00000-0 -84838-4 0  9998","COUNTRY_CODE":"US","RCS_SIZE":"LARGE","CENTER_NAME":"EARTH","OBJECT_TYPE":"PAYLOAD","PERIAPSIS":"546.263","OBJECT_NAME":"STARLINK-2631","APOAPSIS":"548.224","MEAN_ELEMENT_THEORY":"SGP4","MEAN_MOTION_DDOT":"0.0000000000000","SITE":"AFETR","EPHEMERIS_TYPE":"0","LAUNCH_DATE":"2021-05-04","RA_OF_ASC_NODE":"316.2487","ECCENTRICITY":"0.00014160","REV_AT_EPOCH":"5078","REF_FRAME":"TEME","PERIOD":"95.593","MEAN_MOTION_DOT":"-0.00001545","DECAY_DATE":null,"SEMIMAJOR_AXIS":"6925.379"},{"MEAN_ELEMENT_THEORY":"SGP4","APOAPSIS":"548.313","OBJECT_NAME":"STARLINK-2643","PERIAPSIS":"546.162","OBJECT_TYPE":"PAYLOAD","RCS_SIZE":"LARGE","CENTER_NAME":"EARTH","SEMIMAJOR_AXIS":"6925.373","DECAY_DATE":null,"PERIOD":"95.593","MEAN_MOTION_DOT":"0.00004091","REF_FRAME":"TEME","RA_OF_ASC_NODE":"316.2780","ECCENTRICITY":"0.00015530","REV_AT_EPOCH":"5078","LAUNCH_DATE":"2021-05-04","EPHEMERIS_TYPE":"0","SITE":"AFETR","MEAN_MOTION_DDOT":"0.0000000000000","TIME_SYSTEM":"UTC","MEAN_MOTION":"15.06392110","ARG_OF_PERICENTER":"63.7292","FILE":"3387897","NORAD_CAT_ID":"48367","TLE_LINE2":"2 48367  53.0554 316.2780 0001553  63.7292 296.3856 15.06392110 50789","COUNTRY_CODE":"US","TLE_LINE1":"1 48367U 21038Q   22094.09195508  .00004091  00000-0  29342-3 0  9993","GP_ID":"200424373","MEAN_ANOMALY":"296.3856","INCLINATION":"53.0554","CLASSIFICATION_TYPE":"U","ELEMENT_SET_NO":"999","OBJECT_ID":"2021-038Q","EPOCH":"2022-04-04T02:12:24.918912","BSTAR":"0.00029342000000"},{"ARG_OF_PERICENTER":"59.6315","FILE":"3388022","NORAD_CAT_ID":"48368","TIME_SYSTEM":"UTC","MEAN_MOTION":"15.06392412","MEAN_ANOMALY":"300.4832","INCLINATION":"53.0553","CLASSIFICATION_TYPE":"U","ELEMENT_SET_NO":"999","EPOCH":"2022-04-04T20:08:31.911936","OBJECT_ID":"2021-038R","BSTAR":"0.00023672000000","TLE_LINE1":"1 48368U 21038R   22094.83925824  .00003245  00000-0  23672-3 0  9998","GP_ID":"200430280","COUNTRY_CODE":"US","TLE_LINE2":"2 48368  53.0553 312.9069 0001599  59.6315 300.4832 15.06392412 51497","OBJECT_NAME":"STARLINK-2623","PERIAPSIS":"546.129","OBJECT_TYPE":"PAYLOAD","CENTER_NAME":"EARTH","RCS_SIZE":"LARGE","MEAN_ELEMENT_THEORY":"SGP4","APOAPSIS":"548.344","REV_AT_EPOCH":"5149","RA_OF_ASC_NODE":"312.9069","ECCENTRICITY":"0.00015990","LAUNCH_DATE":"2021-05-04","EPHEMERIS_TYPE":"0","SITE":"AFETR","MEAN_MOTION_DDOT":"0.0000000000000","DECAY_DATE":null,"SEMIMAJOR_AXIS":"6925.372","MEAN_MOTION_DOT":"0.00003245","PERIOD":"95.593","REF_FRAME":"TEME"},{"FILE":"3387897","NORAD_CAT_ID":"48369","ARG_OF_PERICENTER":"62.6021","MEAN_MOTION":"15.06390443","TIME_SYSTEM":"UTC","OBJECT_ID":"2021-038S","EPOCH":"2022-04-04T00:31:33.908736","BSTAR":"-0.00004318900000","INCLINATION":"53.0572","MEAN_ANOMALY":"297.5149","ELEMENT_SET_NO":"999","CLASSIFICATION_TYPE":"U","TLE_LINE2":"2 48369  53.0572 316.5770 0001782  62.6021 297.5149 15.06390443 50779","TLE_LINE1":"1 48369U 21038S   22094.02192024 -.00000925  00000-0 -43189-4 0  9998","GP_ID":"200425369","COUNTRY_CODE":"US","OBJECT_TYPE":"PAYLOAD","RCS_SIZE":"LARGE","CENTER_NAME":"EARTH","OBJECT_NAME":"STARLINK-2641","PERIAPSIS":"546.009","APOAPSIS":"548.477","MEAN_ELEMENT_THEORY":"SGP4","EPHEMERIS_TYPE":"0","SITE":"AFETR","MEAN_MOTION_DDOT":"0.0000000000000","ECCENTRICITY":"0.00017820","RA_OF_ASC_NODE":"316.5770","REV_AT_EPOCH":"5077","LAUNCH_DATE":"2021-05-04","REF_FRAME":"TEME","SEMIMAJOR_AXIS":"6925.378","DECAY_DATE":null,"PERIOD":"95.593","MEAN_MOTION_DOT":"-0.00000925"},{"REF_FRAME":"TEME","MEAN_MOTION_DOT":"0.00003685","PERIOD":"95.592","DECAY_DATE":null,"SEMIMAJOR_AXIS":"6925.359","MEAN_MOTION_DDOT":"0.0000000000000","EPHEMERIS_TYPE":"0","SITE":"AFETR","LAUNCH_DATE":"2021-05-04","REV_AT_EPOCH":"5149","ECCENTRICITY":"0.00014770","RA_OF_ASC_NODE":"312.7264","APOAPSIS":"548.247","MEAN_ELEMENT_THEORY":"SGP4","CENTER_NAME":"EARTH","RCS_SIZE":"LARGE","OBJECT_TYPE":"PAYLOAD","PERIAPSIS":"546.202","OBJECT_NAME":"STARLINK-2621","GP_ID":"200434219","TLE_LINE1":"1 48370U 21038T   22094.88074166  .00003685  00000-0  26619-3 0  9992","COUNTRY_CODE":"US","TLE_LINE2":"2 48370  53.0565 312.7264 0001477  58.1331 301.9801 15.06396468 51492","BSTAR":"0.00026619000000","EPOCH":"2022-04-04T21:08:16.079424","OBJECT_ID":"2021-038T","ELEMENT_SET_NO":"999","CLASSIFICATION_TYPE":"U","MEAN_ANOMALY":"301.9801","INCLINATION":"53.0565","MEAN_MOTION":"15.06396468","TIME_SYSTEM":"UTC","NORAD_CAT_ID":"48370","FILE":"3388188","ARG_OF_PERICENTER":"58.1331"}];
